NORAD_CAT_ID,OBJECT_NAME,OBJECT_TYPE,EPOCH,MEAN_MOTION,ECCENTRICITY,INCLINATION,RA_OF_ASC_NODE,ARG_OF_PERICENTER,MEAN_ANOMALY,BSTAR,MEAN_MOTION_DOT,MEAN_MOTION_DDOT,TLE_LINE0,TLE_LINE1,TLE_LINE2,SEMIMAJOR_AXIS,PERIOD,APOGEE,PERIGEE,DECAYED
53389.0,STARLINK-4523,PAYLOAD,2024-01-09 22:27:23,15.08845019,0.0001667,53.2185,69.4669,104.7371,255.3806,2.5954e-05,1.25e-06,0.0,0 STARLINK-4523,1 53389U 22097B   24009.93569006  .00000125  00000-0  25954-4 0  9998,2 53389  53.2185  69.4669 0001667 104.7371 255.3806 15.08845019 78798,6917.865,95.437,540.883,538.577,0.0
53389.0,STARLINK-4523,PAYLOAD,2024-01-10 11:10:28,15.08842889,0.0001399,53.217,67.0853,92.8024,267.3129,3.7728e-06,-2.28e-06,0.0,0 STARLINK-4523,1 53389U 22097B   24010.46561205 -.00000228  00000-0  37728-5 0  9999,2 53389  53.2170  67.0853 0001399  92.8024 267.3129 15.08842889 79520,6917.872,95.437,540.704,538.769,0.0
53389.0,STARLINK-4523,PAYLOAD,2024-01-11 11:01:15,15.08848651,0.0001653,53.2185,62.6223,78.5583,281.5595,0.00011154,1.488e-05,0.0,0 STARLINK-4523,1 53389U 22097B   24011.45920629  .00001488  00000-0  11154-3 0  9999,2 53389  53.2185  62.6223 0001653  78.5583 281.5595 15.08848651 79025,6917.854,95.437,540.862,538.575,0.0
53389.0,STARLINK-4523,PAYLOAD,2024-01-11 12:36:38,15.08852866,0.0001591,53.2174,62.3232,80.1968,279.9204,0.00014502,2.022e-05,0.0,0 STARLINK-4523,1 53389U 22097B   24011.52544231  .00002022  00000-0  14502-3 0  9993,2 53389  53.2174  62.3232 0001591  80.1968 279.9204 15.08852866 79680,6917.841,95.437,540.807,538.605,0.0
53389.0,STARLINK-4523,PAYLOAD,2024-01-12 02:55:07,15.08835232,0.0001898,53.2172,59.6528,78.921,281.1995,6.9638e-05,8.2e-06,0.0,0 STARLINK-4523,1 53389U 22097B   24012.12161737  .00000820  00000-0  69638-4 0  9991,2 53389  53.2172  59.6528 0001898  78.9210 281.1995 15.08835232 79129,6917.895,95.438,541.073,538.447,0.0
53389.0,STARLINK-4523,PAYLOAD,2024-01-12 09:16:40,15.08833381,0.0001626,53.218,58.4616,100.0891,260.0285,8.9566e-05,1.137e-05,0.0,0 STARLINK-4523,1 53389U 22097B   24012.38657833  .00001137  00000-0  89566-4 0  9990,2 53389  53.2180  58.4616 0001626 100.0891 260.0285 15.08833381 79811,6917.901,95.438,540.89,538.641,0.0
53389.0,STARLINK-4523,PAYLOAD,2024-01-13 09:07:26,15.08850141,0.0001651,53.2174,54.0004,90.6448,269.4734,5.4647e-05,5.82e-06,0.0,0 STARLINK-4523,1 53389U 22097B   24013.38016975  .00000582  00000-0  54647-4 0  9992,2 53389  53.2174  54.0004 0001651  90.6448 269.4734 15.08850141 79317,6917.849,95.437,540.857,538.572,0.0
53389.0,STARLINK-4523,PAYLOAD,2024-01-14 12:09:00,15.08841495,0.000198,53.2188,48.9418,114.1619,245.9581,6.4382e-05,7.37e-06,0.0,0 STARLINK-4523,1 53389U 22097B   24014.50625492  .00000737  00000-0  64382-4 0  9996,2 53389  53.2188  48.9418 0001980 114.1619 245.9581 15.08841495 79489,6917.876,95.437,541.111,538.371,0.0
53389.0,STARLINK-4523,PAYLOAD,2024-01-15 11:59:47,15.08849668,0.0001918,53.2183,44.48,107.5814,252.5388,8.1868e-05,1.015e-05,0.0,0 STARLINK-4523,1 53389U 22097B   24015.49984997  .00001015  00000-0  81868-4 0  9991,2 53389  53.2183  44.4800 0001918 107.5814 252.5388 15.08849668 80283,6917.851,95.437,541.043,538.389,0.0
53389.0,STARLINK-4523,PAYLOAD,2024-01-16 02:18:16,15.08830703,0.0001811,53.2179,41.7989,110.4156,249.7031,2.3807e-05,9.1e-07,0.0,0 STARLINK-4523,1 53389U 22097B   24016.09602514  .00000091  00000-0  23807-4 0  9992,2 53389  53.2179  41.7989 0001811 110.4156 249.7031 15.08830703 79720,6917.909,95.438,541.027,538.521,0.0
53389.0,STARLINK-4523,PAYLOAD,2024-01-16 11:50:35,15.08831667,0.0001849,53.2182,40.0225,99.516,260.6041,-2.2465e-05,-6.46e-06,0.0,0 STARLINK-4523,1 53389U 22097B   24016.49346452 -.00000646  00000-0 -22465-4 0  9999,2 53389  53.2182  40.0225 0001849  99.5160 260.6041 15.08831667 80435,6917.906,95.438,541.05,538.492,0.0
53389.0,STARLINK-4523,PAYLOAD,2024-01-17 08:30:35,15.08843759,0.000173,53.2178,36.1576,93.7971,266.3219,7.3227e-05,8.78e-06,0.0,0 STARLINK-4523,1 53389U 22097B   24017.35458285  .00000878  00000-0  73227-4 0  9990,2 53389  53.2178  36.1576 0001730  93.7971 266.3219 15.08843759 79916,6917.869,95.437,540.931,538.537,0.0
53389.0,STARLINK-4523,PAYLOAD,2024-01-17 22:49:04,15.08835755,0.000164,53.2165,33.4849,79.1595,280.9582,0.00021592,3.15e-05,0.0,0 STARLINK-4523,1 53389U 22097B   24017.95074960  .00003150  00000-0  21592-3 0  9993,2 53389  53.2165  33.4849 0001640  79.1595 280.9582 15.08835755 80009,6917.893,95.438,540.893,538.624,0.0
53389.0,STARLINK-4523,PAYLOAD,2024-01-18 09:56:45,15.08884513,0.0001596,53.2167,31.4011,98.2376,261.8797,0.0013149,0.00020726,0.0,0 STARLINK-4523,1 53389U 22097B   24018.41441156  .00020726  00000-0  13149-2 0  9996,2 53389  53.2167  31.4011 0001596  98.2376 261.8797 15.08884513 80078,6917.744,95.435,540.713,538.505,0.0
53389.0,STARLINK-4523,PAYLOAD,2024-01-18 22:39:50,15.0884953,0.0001566,53.218,29.0252,82.1764,277.9406,-0.0002389,-4.089e-05,0.0,0 STARLINK-4523,1 53389U 22097B   24018.94433553 -.00004089  00000-0 -23890-3 0  9997,2 53389  53.2180  29.0252 0001566  82.1764 277.9406 15.08849530 80157,6917.851,95.437,540.8,538.633,0.0
53389.0,STARLINK-4523,PAYLOAD,2024-01-19 09:47:32,15.08846642,0.0001586,53.2167,26.9372,93.3979,266.7195,0.0001002,1.307e-05,0.0,0 STARLINK-4523,1 53389U 22097B   24019.40801550  .00001307  00000-0  10020-3 0  9994,2 53389  53.2167  26.9372 0001586  93.3979 266.7195 15.08846642 80876,6917.86,95.437,540.822,538.628,0.0
53389.0,STARLINK-4523,PAYLOAD,2024-01-20 06:27:34,15.08832481,0.0002005,53.2187,23.0674,73.6259,286.4954,0.0002963,4.43e-05,0.0,0 STARLINK-4523,1 53389U 22097B   24020.26914617  .00004430  00000-0  29630-3 0  9996,2 53389  53.2187  23.0674 0002005  73.6259 286.4954 15.08832481 80351,6917.903,95.438,541.155,538.381,0.0
53389.0,STARLINK-4523,PAYLOAD,2024-01-21 06:18:21,15.08843162,0.0001579,53.2159,18.6215,87.6448,272.4725,0.00036378,5.507e-05,0.0,0 STARLINK-4523,1 53389U 22097B   24021.26274736  .00005507  00000-0  36378-3 0  9991,2 53389  53.2159  18.6215 0001579  87.6448 272.4725 15.08843162 81159,6917.871,95.437,540.828,538.643,0.0
53389.0,STARLINK-4523,PAYLOAD,2024-01-21 09:29:07,15.08846748,0.0001562,53.2164,18.0168,98.6697,261.4472,0.00042285,6.449e-05,0.0,0 STARLINK-4523,1 53389U 22097B   24021.39522463  .00006449  00000-0  42285-3 0  9998,2 53389  53.2164  18.0168 0001562  98.6697 261.4472 15.08846748 80526,6917.86,95.437,540.805,538.644,0.0
53389.0,STARLINK-4523,PAYLOAD,2024-01-22 02:58:22,15.08843755,0.0002014,53.2162,14.7422,116.9908,243.129,0.00025763,3.815e-05,0.0,0 STARLINK-4523,1 53389U 22097B   24022.12386589  .00003815  00000-0  25763-3 0  9993,2 53389  53.2162  14.7422 0002014 116.9908 243.1290 15.08843755 80634,6917.869,95.437,541.127,538.341,0.0
53389.0,STARLINK-4523,PAYLOAD,2024-01-22 04:33:45,15.0884436,0.0001846,53.2167,14.4447,115.6408,244.4775,0.0002767,4.119e-05,0.0,0 STARLINK-4523,1 53389U 22097B   24022.19010603  .00004119  00000-0  27670-3 0  9998,2 53389  53.2167  14.4447 0001846 115.6408 244.4775 15.08844360 81294,6917.867,95.437,541.009,538.455,0.0
53389.0,STARLINK-4523,PAYLOAD,2024-01-22 09:19:54,15.08844335,0.0001885,53.2171,13.5541,112.3717,247.7475,0.00020064,2.907e-05,0.0,0 STARLINK-4523,1 53389U 22097B   24022.38882581  .00002907  00000-0  20064-3 0  9994,2 53389  53.2171  13.5541 0001885 112.3717 247.7475 15.08844335 81323,6917.867,95.437,541.036,538.428,0.0
53389.0,STARLINK-4523,PAYLOAD,2024-01-23 02:49:09,15.08841405,0.0001988,53.2176,10.2835,115.7697,244.3501,8.726e-05,1.101e-05,0.0,0 STARLINK-4523,1 53389U 22097B   24023.11746705  .00001101  00000-0  87260-4 0  9990,2 53389  53.2176  10.2835 0001988 115.7697 244.3501 15.08841405 80783,6917.876,95.437,541.116,538.366,0.0
53389.0,STARLINK-4523,PAYLOAD,2024-01-23 04:24:32,15.08841954,0.0001911,53.2179,9.9862,113.465,246.6543,9.6427e-05,1.247e-05,0.0,0 STARLINK-4523,1 53389U 22097B   24023.18370705  .00001247  00000-0  96427-4 0  9996,2 53389  53.2179   9.9862 0001911 113.4650 246.6543 15.08841954 81445,6917.874,95.437,541.061,538.417,0.0
53389.0,STARLINK-4523,PAYLOAD,2024-01-24 04:15:19,15.08844374,0.0001973,53.2186,5.526,116.5861,243.5334,0.00013619,1.88e-05,0.0,0 STARLINK-4523,1 53389U 22097B   24024.17730618  .00001880  00000-0  13619-3 0  9993,2 53389  53.2186   5.5260 0001973 116.5861 243.5334 15.08844374 80940,6917.867,95.437,541.097,538.367,0.0
53389.0,STARLINK-4523,PAYLOAD,2024-01-25 04:06:06,15.08842417,0.0001433,53.2182,1.0744,73.9254,286.1895,9.5487e-05,1.232e-05,0.0,0 STARLINK-4523,1 53389U 22097B   24025.17091096  .00001232  00000-0  95487-4 0  9999,2 53389  53.2182   1.0744 0001433  73.9254 286.1895 15.08842417 81095,6917.873,95.437,540.729,538.747,0.0
53389.0,STARLINK-4523,PAYLOAD,2024-01-25 08:52:15,15.08850023,0.0001582,53.2185,0.1703,94.0154,266.1019,0.00019849,2.873e-05,0.0,0 STARLINK-4523,1 53389U 22097B   24025.36962471  .00002873  00000-0  19849-3 0  9993,2 53389  53.2185   0.1703 0001582  94.0154 266.1019 15.08850023 81774,6917.85,95.437,540.809,538.62,0.0
53389.0,STARLINK-4523,PAYLOAD,2024-01-26 03:56:53,15.08836548,0.0001529,53.2193,356.605,92.5991,267.5176,6.1026e-05,6.83e-06,0.0,0 STARLINK-4523,1 53389U 22097B   24026.16451375  .00000683  00000-0  61026-4 0  9990,2 53389  53.2193 356.6050 0001529  92.5991 267.5176 15.08836548 81247,6917.891,95.438,540.814,538.698,0.0
53389.0,STARLINK-4523,PAYLOAD,2024-01-26 05:32:17,15.08833662,0.0001368,53.218,356.3139,101.6013,258.5133,1.4516e-05,-5.7e-07,0.0,0 STARLINK-4523,1 53389U 22097B   24026.23075541 -.00000057  00000-0  14516-4 0  9993,2 53389  53.2180 356.3139 0001368 101.6013 258.5133 15.08833662 81906,6917.9,95.438,540.711,538.818,0.0
53389.0,STARLINK-4523,PAYLOAD,2024-01-27 06:58:27,15.08851711,0.0001962,53.2205,351.542,68.5001,291.6201,0.0002443,3.603e-05,0.0,0 STARLINK-4523,1 53389U 22097B   24027.29059153  .00003603  00000-0  24430-3 0  9995,2 53389  53.2205 351.5420 0001962  68.5001 291.6201 15.08851711 81417,6917.845,95.437,541.067,538.352,0.0
